format  = 'OEF2.0'       ! file format
rectype = 'ML'           ! record type (1L/ML)
refsys  = ECLM J2000     ! default reference system
END_OF_HEADER
va_000224
! Equinoctial elements: a, e*sin(LP), e*cos(LP), tan(i/2)*sin(LN), tan(i/2)*cos(LN), mean long.
 EQU   1.4597534158637671E+00   0.285860433456457   0.187526801841241   -0.001113626290623   -0.001969826544645  34.9413212664903
 MJD     57291.958166082 TDT
 MAG  22.961  0.150
! Non-grav parameters: model used, actual number in use, dimension
 LSP   0  0    6
! RMS    7.65559E-05   2.84584E-05   1.92970E-05   1.08878E-07   1.43177E-07   2.21480E-03
! EIG   2.03849E-08   2.27828E-08   5.43026E-08   8.15661E-08   9.40889E-07   9.23929E-05
! WEA   0.83232   0.45162   0.30619  -0.00168  -0.00187   0.09762
 COV   5.860799498880424E-09  2.178485269380005E-09  1.477023017894695E-09
 COV  -8.114269392411425E-12 -9.036421113091911E-12  1.695117131611369E-07
 COV   8.098825590093489E-10  5.488855492515955E-10 -3.016967893875831E-12
 COV  -3.359924900455378E-12  6.302638791567345E-08  3.723735997472310E-10
 COV  -2.043979704726004E-12 -2.276158854884899E-12  4.270116589805047E-08
 COV   1.185436343436210E-14  1.327350451105623E-14 -2.348159883884478E-10
 COV   2.049962142439878E-14 -2.615151582945034E-10  4.905354372202059E-06
 NOR   1.407617068373902E+14  1.719325588204559E+14 -3.660478699465176E+14
 NOR   6.574250489257274E+12  6.640485095694008E+11 -3.886499640064521E+12
 NOR   9.664973761166675E+14 -7.225540816621682E+14 -2.688987807231946E+13
 NOR   1.593148129029717E+12 -1.207077256345189E+13  1.053709650502348E+15
 NOR  -4.547648470076557E+12 -2.069604948829088E+12  1.276016592014328E+13
 NOR   1.899586832469171E+15 -2.184652395044792E+14  2.371838229408604E+11
 NOR   1.776500951624858E+14 -2.638764842801621E+10  1.783276338018872E+11
va_000225
! Equinoctial elements: a, e*sin(LP), e*cos(LP), tan(i/2)*sin(LN), tan(i/2)*cos(LN), mean long.
 EQU   1.4597538662329113E+00   0.285860600867167   0.187526915337135   -0.001113626914198   -0.001969827239115  34.9413342936966
 MJD     57291.958166082 TDT
 MAG  22.961  0.150
! Non-grav parameters: model used, actual number in use, dimension
 LSP   0  0    6
! RMS    7.65559E-05   2.84584E-05   1.92970E-05   1.08878E-07   1.43177E-07   2.21480E-03
! EIG   2.03849E-08   2.27828E-08   5.43026E-08   8.15662E-08   9.40889E-07   9.23930E-05
! WEA   0.83232   0.45162   0.30619  -0.00168  -0.00187   0.09762
 COV   5.860808562276260E-09  2.178487286136261E-09  1.477024247853978E-09
 COV  -8.114275358643843E-12 -9.036424098295781E-12  1.695118043542823E-07
 COV   8.098828061336593E-10  5.488856655432199E-10 -3.016968240100119E-12
 COV  -3.359923925716994E-12  6.302638271541618E-08  3.723736442174272E-10
 COV  -2.043979747894479E-12 -2.276157981023000E-12  4.270115837388270E-08
 COV   1.185436323183418E-14  1.327349951237809E-14 -2.348159243537002E-10
 COV   2.049961454061710E-14 -2.615149811179476E-10  4.905352066870586E-06
 NOR   1.407614846148395E+14  1.719324080457230E+14 -3.660475744570028E+14
 NOR   6.574242557646348E+12  6.640474771421705E+11 -3.886497418933205E+12
 NOR   9.664972248570145E+14 -7.225541183274718E+14 -2.688986371292714E+13
 NOR   1.593150159567100E+12 -1.207077404231550E+13  1.053709690888400E+15
 NOR  -4.547641075485265E+12 -2.069604715952142E+12  1.276016948117910E+13
 NOR   1.899585085950334E+15 -2.184651502907696E+14  2.371837061745927E+11
 NOR   1.776499708475545E+14 -2.638767302087794E+10  1.783277078760138E+11
va_000226
! Equinoctial elements: a, e*sin(LP), e*cos(LP), tan(i/2)*sin(LN), tan(i/2)*cos(LN), mean long.
 EQU   1.4597543167036842E+00   0.285860768315553   0.187527028858557   -0.001113627537912   -0.001969827933741  34.9413473238300
 MJD     57291.958166082 TDT
 MAG  22.961  0.150
! Non-grav parameters: model used, actual number in use, dimension
 LSP   0  0    6
! RMS    7.65560E-05   2.84584E-05   1.92970E-05   1.08878E-07   1.43177E-07   2.21480E-03
! EIG   2.03849E-08   2.27828E-08   5.43026E-08   8.15662E-08   9.40890E-07   9.23930E-05
! WEA   0.83232   0.45162   0.30619  -0.00168  -0.00187   0.09762
 COV   5.860817632338671E-09  2.178489305063766E-09  1.477025479252257E-09
 COV  -8.114281332616455E-12 -9.036427091295237E-12  1.695118957015653E-07
 COV   8.098830539516588E-10  5.488857822928791E-10 -3.016968588779954E-12
 COV  -3.359922953408488E-12  6.302637756366192E-08  3.723736889899323E-10
 COV  -2.043979792681979E-12 -2.276157108757763E-12  4.270115088164477E-08
 COV   1.185436303812136E-14  1.327349452245002E-14 -2.348158604896719E-10
 COV   2.049960766629391E-14 -2.615148041078791E-10  4.905349764888785E-06
 NOR   1.407612623427138E+14  1.719322572373132E+14 -3.660472789015090E+14
 NOR   6.574234624264567E+12  6.640464444844213E+11 -3.886495197305777E+12
 NOR   9.664970735643414E+14 -7.225541550016911E+14 -2.688984935032961E+13
 NOR   1.593152190558813E+12 -1.207077552152352E+13  1.053709731284563E+15
 NOR  -4.547633679243384E+12 -2.069604483024336E+12  1.276017304302800E+13
 NOR   1.899583339041465E+15 -2.184650610571227E+14  2.371835893822760E+11
 NOR   1.776498465049013E+14 -2.638769761925229E+10  1.783277819669886E+11
va_000227
! Equinoctial elements: a, e*sin(LP), e*cos(LP), tan(i/2)*sin(LN), tan(i/2)*cos(LN), mean long.
 EQU   1.4597547672917317E+00   0.285860935807428   0.187527142409453   -0.001113628161788   -0.001969828628547  34.9413603573421
 MJD     57291.958166082 TDT
 MAG  22.961  0.150
! Non-grav parameters: model used, actual number in use, dimension
 LSP   0  0    6
! RMS    7.65560E-05   2.84584E-05   1.92970E-05   1.08878E-07   1.43177E-07   2.21480E-03
! EIG   2.03849E-08   2.27828E-08   5.43026E-08   8.15662E-08   9.40890E-07   9.23930E-05
! WEA   0.83232   0.45162   0.30619  -0.00168  -0.00187   0.09762
 COV   5.860826698014301E-09  2.178491322005956E-09  1.477026709268297E-09
 COV  -8.114287298790660E-12 -9.036430074656476E-12  1.695119868772094E-07
 COV   8.098833009004994E-10  5.488858984398104E-10 -3.016968934073160E-12
 COV  -3.359921976975665E-12  6.302637233793061E-08  3.723737333447817E-10
 COV  -2.043979835123195E-12 -2.276156233640655E-12  4.270114333820530E-08
 COV   1.185436283140747E-14  1.327348951680768E-14 -2.348157963385253E-10
 COV   2.049960077413678E-14 -2.615146267506878E-10  4.905347456658421E-06
 NOR   1.407610400132878E+14  1.719321063899904E+14 -3.660469832697622E+14
 NOR   6.574226688835272E+12  6.640454115604927E+11 -3.886492975104986E+12
 NOR   9.664969222332290E+14 -7.225541916860512E+14 -2.688983498403116E+13
 NOR   1.593154222075657E+12 -1.207077700112567E+13  1.053709771692209E+15
 NOR  -4.547626281090157E+12 -2.069604250038179E+12  1.276017660581305E+13
 NOR   1.899581591681800E+15 -2.184649718003999E+14  2.371834725599007E+11
 NOR   1.776497221301666E+14 -2.638772222400078E+10  1.783278560773669E+11
va_000228
! Equinoctial elements: a, e*sin(LP), e*cos(LP), tan(i/2)*sin(LN), tan(i/2)*cos(LN), mean long.
 EQU   1.4597552180127260E+00   0.285861103348618   0.187527255993771   -0.001113628785848   -0.001969829323557  34.9413733946869
 MJD     57291.958166082 TDT
 MAG  22.961  0.150
! Non-grav parameters: model used, actual number in use, dimension
 LSP   0  0    6
! RMS    7.65561E-05   2.84585E-05   1.92970E-05   1.08878E-07   1.43177E-07   2.21480E-03
! EIG   2.03849E-08   2.27828E-08   5.43026E-08   8.15663E-08   9.40890E-07   9.23931E-05
! WEA   0.83232   0.45162   0.30619  -0.00168  -0.00187   0.09762
 COV   5.860835762489495E-09  2.178493338098808E-09  1.477027938669823E-09
 COV  -8.114293261338771E-12 -9.036433052897707E-12  1.695120779672336E-07
 COV   8.098835473844425E-10  5.488860142571784E-10 -3.016969277463615E-12
 COV  -3.359920998023363E-12  6.302636706879664E-08  3.723737774665668E-10
 COV  -2.043979876220729E-12 -2.276155356755907E-12  4.270113576422139E-08
 COV   1.185436261716047E-14  1.327348450137310E-14 -2.348157320124393E-10
 COV   2.049959387069367E-14 -2.615144491675905E-10  4.905345144489913E-06
 NOR   1.407608176188296E+14  1.719319554985303E+14 -3.660466875514890E+14
 NOR   6.574218751083567E+12  6.640443783344595E+11 -3.886490752253780E+12
 NOR   9.664967708585739E+14 -7.225542283819195E+14 -2.688982061352876E+13
 NOR   1.593156254188559E+12 -1.207077848117541E+13  1.053709812112788E+15
 NOR  -4.547618880772177E+12 -2.069604016985656E+12  1.276018016965921E+13
 NOR   1.899579843810680E+15 -2.184648825174945E+14  2.371833557033549E+11
 NOR   1.776495977190204E+14 -2.638774683598174E+10  1.783279302097506E+11
